{
  "links" : {
    "next" : "https://api.nasa.gov/neo/rest/v1/feed?start_date=2014-12-23&end_date=2014-12-23&detailed=true&api_key=t0TVs3DtDT2H8Oy2Zy8m2eVrNsAVKAexjcZXUckd",
    "prev" : "https://api.nasa.gov/neo/rest/v1/feed?start_date=2014-12-21&end_date=2014-12-21&detailed=true&api_key=t0TVs3DtDT2H8Oy2Zy8m2eVrNsAVKAexjcZXUckd",
    "self" : "https://api.nasa.gov/neo/rest/v1/feed?start_date=2014-12-22&end_date=2014-12-22&detailed=true&api_key=t0TVs3DtDT2H8Oy2Zy8m2eVrNsAVKAexjcZXUckd"
  },
  "element_count" : 7,
  "near_earth_objects" : {
    "2014-12-22" : [ {
      "links" : {
        "self" : "https://api.nasa.gov/neo/rest/v1/neo/3592017?api_key=t0TVs3DtDT2H8Oy2Zy8m2eVrNsAVKAexjcZXUckd"
      },
      "neo_reference_id" : "3592017",
      "name" : "(2012 AX)",
      "nasa_jpl_url" : "http://ssd.jpl.nasa.gov/sbdb.cgi?sstr=3592017",
      "absolute_magnitude_h" : 23.8,
      "estimated_diameter" : {
        "kilometers" : {
          "estimated_diameter_min" : 0.046190746,
          "estimated_diameter_max" : 0.1032856481
        },
        "meters" : {
          "estimated_diameter_min" : 46.1907460282,
          "estimated_diameter_max" : 103.2856480504
        },
        "miles" : {
          "estimated_diameter_min" : 0.0287015901,
          "estimated_diameter_max" : 0.0641787064
        },
        "feet" : {
          "estimated_diameter_min" : 151.544447199,
          "estimated_diameter_max" : 338.8636855496
        }
      },
      "is_potentially_hazardous_asteroid" : false,
      "close_approach_data" : [ {
        "close_approach_date" : "2014-12-22",
        "epoch_date_close_approach" : 1419235200000,
        "relative_velocity" : {
          "kilometers_per_second" : "14.720137616",
          "kilometers_per_hour" : "52992.4954176842",
          "miles_per_hour" : "32927.4758332827"
        },
        "miss_distance" : {
          "astronomical" : "0.2624912048",
          "lunar" : "102.1090774536",
          "kilometers" : "39268124",
          "miles" : "24400082"
        },
        "orbiting_body" : "Earth"
      } ],
      "orbital_data" : {
        "orbit_id" : "9",
        "orbit_determination_date" : "2017-04-06 08:51:33",
        "orbit_uncertainty" : "6",
        "minimum_orbit_intersection" : ".0724903",
        "jupiter_tisserand_invariant" : "3.603",
        "epoch_osculation" : "2458000.5",
        "eccentricity" : ".5064841564557107",
        "semi_major_axis" : "2.059171482877488",
        "inclination" : "7.138868890829939",
        "ascending_node_longitude" : "91.05707199780565",
        "orbital_period" : "1079.287630097962",
        "perihelion_distance" : "1.016233751374629",
        "perihelion_argument" : "42.30184000422879",
        "aphelion_distance" : "3.102109214380347",
        "perihelion_time" : "2458118.332067574978",
        "mean_anomaly" : "320.6967196287222",
        "mean_motion" : ".3335533457075983",
        "equinox" : "J2000"
      }
    }, {
      "links" : {
        "self" : "https://api.nasa.gov/neo/rest/v1/neo/2007889?api_key=t0TVs3DtDT2H8Oy2Zy8m2eVrNsAVKAexjcZXUckd"
      },
      "neo_reference_id" : "2007889",
      "name" : "7889 (1994 LX)",
      "nasa_jpl_url" : "http://ssd.jpl.nasa.gov/sbdb.cgi?sstr=2007889",
      "absolute_magnitude_h" : 15.2,
      "estimated_diameter" : {
        "kilometers" : {
          "estimated_diameter_min" : 2.424124811,
          "estimated_diameter_max" : 5.4205078634
        },
        "meters" : {
          "estimated_diameter_min" : 2424.124811008,
          "estimated_diameter_max" : 5420.5078633577
        },
        "miles" : {
          "estimated_diameter_min" : 1.5062808579,
          "estimated_diameter_max" : 3.3681463916
        },
        "feet" : {
          "estimated_diameter_min" : 7953.1656449475,
          "estimated_diameter_max" : 17783.8190184186
        }
      },
      "is_potentially_hazardous_asteroid" : false,
      "close_approach_data" : [ {
        "close_approach_date" : "2014-12-22",
        "epoch_date_close_approach" : 1419235200000,
        "relative_velocity" : {
          "kilometers_per_second" : "23.5171957167",
          "kilometers_per_hour" : "84661.9045800649",
          "miles_per_hour" : "52605.615098652"
        },
        "miss_distance" : {
          "astronomical" : "0.3039312638",
          "lunar" : "118.2292633057",
          "kilometers" : "45467472",
          "miles" : "28252176"
        },
        "orbiting_body" : "Earth"
      } ],
      "orbital_data" : {
        "orbit_id" : "243",
        "orbit_determination_date" : "2017-04-06 09:30:06",
        "orbit_uncertainty" : "0",
        "minimum_orbit_intersection" : ".153116",
        "jupiter_tisserand_invariant" : "4.864",
        "epoch_osculation" : "2458000.5",
        "eccentricity" : ".3462176090606361",
        "semi_major_axis" : "1.261472788664913",
        "inclination" : "36.90474113907512",
        "ascending_node_longitude" : "111.2843655924391",
        "orbital_period" : "517.5058422317659",
        "perihelion_distance" : ".8247286958782939",
        "perihelion_argument" : "349.1363528348002",
        "aphelion_distance" : "1.698216881451533",
        "perihelion_time" : "2458045.747710966249",
        "mean_anomaly" : "328.5236868484383",
        "mean_motion" : ".6956443205500535",
        "equinox" : "J2000"
      }
    }, {
      "links" : {
        "self" : "https://api.nasa.gov/neo/rest/v1/neo/2415949?api_key=t0TVs3DtDT2H8Oy2Zy8m2eVrNsAVKAexjcZXUckd"
      },
      "neo_reference_id" : "2415949",
      "name" : "415949 (2001 XY10)",
      "nasa_jpl_url" : "http://ssd.jpl.nasa.gov/sbdb.cgi?sstr=2415949",
      "absolute_magnitude_h" : 19.3,
      "estimated_diameter" : {
        "kilometers" : {
          "estimated_diameter_min" : 0.3669061375,
          "estimated_diameter_max" : 0.8204270649
        },
        "meters" : {
          "estimated_diameter_min" : 366.9061375314,
          "estimated_diameter_max" : 820.4270648822
        },
        "miles" : {
          "estimated_diameter_min" : 0.2279848336,
          "estimated_diameter_max" : 0.5097895857
        },
        "feet" : {
          "estimated_diameter_min" : 1203.7603322587,
          "estimated_diameter_max" : 2691.6899315481
        }
      },
      "is_potentially_hazardous_asteroid" : false,
      "close_approach_data" : [ {
        "close_approach_date" : "2014-12-22",
        "epoch_date_close_approach" : 1419235200000,
        "relative_velocity" : {
          "kilometers_per_second" : "16.7118199465",
          "kilometers_per_hour" : "60162.5518072769",
          "miles_per_hour" : "37382.6700382493"
        },
        "miss_distance" : {
          "astronomical" : "0.1238963656",
          "lunar" : "48.1956863403",
          "kilometers" : "18534632",
          "miles" : "11516887"
        },
        "orbiting_body" : "Earth"
      } ],
      "orbital_data" : {
        "orbit_id" : "45",
        "orbit_determination_date" : "2017-04-06 09:21:24",
        "orbit_uncertainty" : "0",
        "minimum_orbit_intersection" : ".0589887",
        "jupiter_tisserand_invariant" : "6.617",
        "epoch_osculation" : "2458000.5",
        "eccentricity" : ".3872293126731255",
        "semi_major_axis" : ".8716429739089344",
        "inclination" : "30.99355639008334",
        "ascending_node_longitude" : "92.94708114915386",
        "orbital_period" : "297.2394010603352",
        "perihelion_distance" : ".5341172642258187",
        "perihelion_argument" : "219.6695022006778",
        "aphelion_distance" : "1.20916868359205",
        "perihelion_time" : "2458113.458194005914",
        "mean_anomaly" : "223.1912535920002",
        "mean_motion" : "1.211144951563556",
        "equinox" : "J2000"
      }
    } ]
  }
}